[{"OBJECT_NAME":"GSAT0213 (GALILEO 17)","OBJECT_ID":"2016-069C","EPOCH":"2026-04-25T04:09:59.712192","MEAN_MOTION":1.70474518,"ECCENTRICITY":0.00058541,"INCLINATION":55.4662,"RA_OF_ASC_NODE":102.5544,"ARG_OF_PERICENTER":302.3888,"MEAN_ANOMALY":57.5492,"EPHEMERIS_TYPE":0,"CLASSIFICATION_TYPE":"U","NORAD_CAT_ID":41861,"ELEMENT_SET_NO":999,"REV_AT_EPOCH":5861,"BSTAR":0,"MEAN_MOTION_DOT":4.5e-7,"MEAN_MOTION_DDOT":0},{"OBJECT_NAME":"GSAT0214 (GALILEO 18)","OBJECT_ID":"2016-069D","EPOCH":"2026-04-25T21:45:04.996512","MEAN_MOTION":1.7047426,"ECCENTRICITY":0.00049117,"INCLINATION":55.4649,"RA_OF_ASC_NODE":102.5269,"ARG_OF_PERICENTER":307.4506,"MEAN_ANOMALY":52.4995,"EPHEMERIS_TYPE":0,"CLASSIFICATION_TYPE":"U","NORAD_CAT_ID":41862,"ELEMENT_SET_NO":999,"REV_AT_EPOCH":5875,"BSTAR":0,"MEAN_MOTION_DOT":4.5e-7,"MEAN_MOTION_DDOT":0},{"OBJECT_NAME":"SES-15 (WAAS/PRN 133)","OBJECT_ID":"2017-026A","EPOCH":"2026-04-26T22:20:32.700192","MEAN_MOTION":1.00269945,"ECCENTRICITY":6.47e-5,"INCLINATION":0.0241,"RA_OF_ASC_NODE":326.4455,"ARG_OF_PERICENTER":44.7047,"MEAN_ANOMALY":49.7564,"EPHEMERIS_TYPE":0,"CLASSIFICATION_TYPE":"U","NORAD_CAT_ID":42709,"ELEMENT_SET_NO":999,"REV_AT_EPOCH":691,"BSTAR":0,"MEAN_MOTION_DOT":4.9e-7,"MEAN_MOTION_DDOT":0},{"OBJECT_NAME":"QZS-2 (QZSS/PRN 194)","OBJECT_ID":"2017-028A","EPOCH":"2026-04-26T05:37:22.429632","MEAN_MOTION":1.0024752,"ECCENTRICITY":0.07403185,"INCLINATION":39.5095,"RA_OF_ASC_NODE":243.912,"ARG_OF_PERICENTER":270.8047,"MEAN_ANOMALY":281.9812,"EPHEMERIS_TYPE":0,"CLASSIFICATION_TYPE":"U","NORAD_CAT_ID":42738,"ELEMENT_SET_NO":999,"REV_AT_EPOCH":710,"BSTAR":0,"MEAN_MOTION_DOT":-2.66e-6,"MEAN_MOTION_DDOT":0},{"OBJECT_NAME":"QZS-3 (QZSS/PRN 199)","OBJECT_ID":"2017-048A","EPOCH":"2026-04-26T22:43:42.038976","MEAN_MOTION":1.00270919,"ECCENTRICITY":0.00013543,"INCLINATION":0.0513,"RA_OF_ASC_NODE":181.4635,"ARG_OF_PERICENTER":202.7307,"MEAN_ANOMALY":298.7072,"EPHEMERIS_TYPE":0,"CLASSIFICATION_TYPE":"U","NORAD_CAT_ID":42917,"ELEMENT_SET_NO":999,"REV_AT_EPOCH":3174,"BSTAR":0,"MEAN_MOTION_DOT":-3.59e-6,"MEAN_MOTION_DDOT":0},{"OBJECT_NAME":"COSMOS 2522 (752)","OBJECT_ID":"2017-055A","EPOCH":"2026-04-25T02:19:14.468736","MEAN_MOTION":2.13101747,"ECCENTRICITY":0.00094751,"INCLINATION":64.0763,"RA_OF_ASC_NODE":193.6909,"ARG_OF_PERICENTER":236.5464,"MEAN_ANOMALY":123.4103,"EPHEMERIS_TYPE":0,"CLASSIFICATION_TYPE":"U","NORAD_CAT_ID":42939,"ELEMENT_SET_NO":999,"REV_AT_EPOCH":6684,"BSTAR":0,"MEAN_MOTION_DOT":-1.7e-7,"MEAN_MOTION_DDOT":0},{"OBJECT_NAME":"QZS-4 (QZSS/PRN 195)","OBJECT_ID":"2017-062A","EPOCH":"2026-04-22T16:00:20.725056","MEAN_MOTION":1.00266456,"ECCENTRICITY":0.07466255,"INCLINATION":40.1416,"RA_OF_ASC_NODE":344.1915,"ARG_OF_PERICENTER":270.8161,"MEAN_ANOMALY":335.9811,"EPHEMERIS_TYPE":0,"CLASSIFICATION_TYPE":"U","NORAD_CAT_ID":42965,"ELEMENT_SET_NO":999,"REV_AT_EPOCH":3124,"BSTAR":0,"MEAN_MOTION_DOT":-3.26e-6,"MEAN_MOTION_DDOT":0},{"OBJECT_NAME":"BEIDOU-3 M1 (C19)","OBJECT_ID":"2017-069A","EPOCH":"2026-04-26T01:09:31.266720","MEAN_MOTION":1.86230971,"ECCENTRICITY":0.00122404,"INCLINATION":56.6495,"RA_OF_ASC_NODE":64.8005,"ARG_OF_PERICENTER":318.2876,"MEAN_ANOMALY":41.5912,"EPHEMERIS_TYPE":0,"CLASSIFICATION_TYPE":"U","NORAD_CAT_ID":43001,"ELEMENT_SET_NO":999,"REV_AT_EPOCH":5763,"BSTAR":0,"MEAN_MOTION_DOT":-3.4e-7,"MEAN_MOTION_DDOT":0},{"OBJECT_NAME":"BEIDOU-3 M2 (C20)","OBJECT_ID":"2017-069B","EPOCH":"2026-04-25T23:41:07.655424","MEAN_MOTION":1.86230392,"ECCENTRICITY":0.00101785,"INCLINATION":56.6485,"RA_OF_ASC_NODE":64.8387,"ARG_OF_PERICENTER":339.1978,"MEAN_ANOMALY":20.733,"EPHEMERIS_TYPE":0,"CLASSIFICATION_TYPE":"U","NORAD_CAT_ID":43002,"ELEMENT_SET_NO":999,"REV_AT_EPOCH":5762,"BSTAR":0,"MEAN_MOTION_DOT":-3.3e-7,"MEAN_MOTION_DDOT":0},{"OBJECT_NAME":"GSAT0215 (GALILEO 19)","OBJECT_ID":"2017-079A","EPOCH":"2026-04-23T11:07:24.507840","MEAN_MOTION":1.70474699,"ECCENTRICITY":0.00014285,"INCLINATION":55.0907,"RA_OF_ASC_NODE":223.0118,"ARG_OF_PERICENTER":264.4741,"MEAN_ANOMALY":95.5096,"EPHEMERIS_TYPE":0,"CLASSIFICATION_TYPE":"U","NORAD_CAT_ID":43055,"ELEMENT_SET_NO":999,"REV_AT_EPOCH":5205,"BSTAR":0,"MEAN_MOTION_DOT":-2.2e-7,"MEAN_MOTION_DDOT":0},{"OBJECT_NAME":"GSAT0216 (GALILEO 20)","OBJECT_ID":"2017-079B","EPOCH":"2026-04-24T22:16:03.139968","MEAN_MOTION":1.70474805,"ECCENTRICITY":0.0002775,"INCLINATION":55.0895,"RA_OF_ASC_NODE":222.9715,"ARG_OF_PERICENTER":284.1808,"MEAN_ANOMALY":75.7828,"EPHEMERIS_TYPE":0,"CLASSIFICATION_TYPE":"U","NORAD_CAT_ID":43056,"ELEMENT_SET_NO":999,"REV_AT_EPOCH":5209,"BSTAR":0,"MEAN_MOTION_DOT":-3.4e-7,"MEAN_MOTION_DDOT":0},{"OBJECT_NAME":"GSAT0217 (GALILEO 21)","OBJECT_ID":"2017-079C","EPOCH":"2026-04-26T07:43:18.641856","MEAN_MOTION":1.70474773,"ECCENTRICITY":0.0002278,"INCLINATION":55.0878,"RA_OF_ASC_NODE":222.9311,"ARG_OF_PERICENTER":305.0014,"MEAN_ANOMALY":54.9682,"EPHEMERIS_TYPE":0,"CLASSIFICATION_TYPE":"U","NORAD_CAT_ID":43057,"ELEMENT_SET_NO":999,"REV_AT_EPOCH":5210,"BSTAR":0,"MEAN_MOTION_DOT":-3.9e-7,"MEAN_MOTION_DDOT":0},{"OBJECT_NAME":"GSAT0218 (GALILEO 22)","OBJECT_ID":"2017-079D","EPOCH":"2026-04-25T22:55:31.247328","MEAN_MOTION":1.70474761,"ECCENTRICITY":0.00031835,"INCLINATION":55.0879,"RA_OF_ASC_NODE":222.9388,"ARG_OF_PERICENTER":277.2874,"MEAN_ANOMALY":82.6679,"EPHEMERIS_TYPE":0,"CLASSIFICATION_TYPE":"U","NORAD_CAT_ID":43058,"ELEMENT_SET_NO":999,"REV_AT_EPOCH":5212,"BSTAR":0,"MEAN_MOTION_DOT":-3.9e-7,"MEAN_MOTION_DDOT":0},{"OBJECT_NAME":"BEIDOU-3 M7 (C27)","OBJECT_ID":"2018-003A","EPOCH":"2026-04-24T02:49:17.895072","MEAN_MOTION":1.86227876,"ECCENTRICITY":0.00053048,"INCLINATION":54.3768,"RA_OF_ASC_NODE":304.1996,"ARG_OF_PERICENTER":82.0952,"MEAN_ANOMALY":277.9663,"EPHEMERIS_TYPE":0,"CLASSIFICATION_TYPE":"U","NORAD_CAT_ID":43107,"ELEMENT_SET_NO":999,"REV_AT_EPOCH":5634,"BSTAR":0,"MEAN_MOTION_DOT":-4.5e-7,"MEAN_MOTION_DDOT":0},{"OBJECT_NAME":"BEIDOU-3 M8 (C28)","OBJECT_ID":"2018-003B","EPOCH":"2026-04-26T05:03:49.853952","MEAN_MOTION":1.86230705,"ECCENTRICITY":0.00021855,"INCLINATION":54.3678,"RA_OF_ASC_NODE":304.1083,"ARG_OF_PERICENTER":285.2373,"MEAN_ANOMALY":74.7389,"EPHEMERIS_TYPE":0,"CLASSIFICATION_TYPE":"U","NORAD_CAT_ID":43108,"ELEMENT_SET_NO":999,"REV_AT_EPOCH":5639,"BSTAR":0,"MEAN_MOTION_DOT":-5.7e-7,"MEAN_MOTION_DDOT":0},{"OBJECT_NAME":"BEIDOU-3 M4 (C22)","OBJECT_ID":"2018-018A","EPOCH":"2026-04-25T01:01:24.618720","MEAN_MOTION":1.86230859,"ECCENTRICITY":0.00078711,"INCLINATION":56.6074,"RA_OF_ASC_NODE":64.8995,"ARG_OF_PERICENTER":1.77,"MEAN_ANOMALY":358.2071,"EPHEMERIS_TYPE":0,"CLASSIFICATION_TYPE":"U","NORAD_CAT_ID":43207,"ELEMENT_SET_NO":999,"REV_AT_EPOCH":5575,"BSTAR":0,"MEAN_MOTION_DOT":-2.5e-7,"MEAN_MOTION_DDOT":0},{"OBJECT_NAME":"BEIDOU-3 M3 (C21)","OBJECT_ID":"2018-018B","EPOCH":"2026-04-26T17:16:44.193216","MEAN_MOTION":1.86230932,"ECCENTRICITY":0.00100419,"INCLINATION":56.6084,"RA_OF_ASC_NODE":64.8481,"ARG_OF_PERICENTER":330.2132,"MEAN_ANOMALY":29.6996,"EPHEMERIS_TYPE":0,"CLASSIFICATION_TYPE":"U","NORAD_CAT_ID":43208,"ELEMENT_SET_NO":999,"REV_AT_EPOCH":5578,"BSTAR":0,"MEAN_MOTION_DOT":-4.1e-7,"MEAN_MOTION_DDOT":0}]
